[
    {
        "OBJECT_NAME": "FENGYUN 3G",
        "OBJECT_ID": "2023-055A",
        "EPOCH": "2026-06-08T03:51:47.521152",
        "MEAN_MOTION": 15.54414771,
        "ECCENTRICITY": 0.0005551,
        "INCLINATION": 49.9935,
        "RA_OF_ASC_NODE": 32.5331,
        "ARG_OF_PERICENTER": 163.1112,
        "MEAN_ANOMALY": 197.0042,
        "EPHEMERIS_TYPE": 0,
        "CLASSIFICATION_TYPE": "U",
        "NORAD_CAT_ID": 56232,
        "ELEMENT_SET_NO": 999,
        "REV_AT_EPOCH": 17860,
        "BSTAR": 0.00042328,
        "MEAN_MOTION_DOT": 0.00027993,
        "MEAN_MOTION_DDOT": 0
    },
    {
        "OBJECT_NAME": "METEOR-M2 3",
        "OBJECT_ID": "2023-091A",
        "EPOCH": "2026-06-08T04:12:13.568256",
        "MEAN_MOTION": 14.24046065,
        "ECCENTRICITY": 0.0003833,
        "INCLINATION": 98.6085,
        "RA_OF_ASC_NODE": 214.3375,
        "ARG_OF_PERICENTER": 179.4696,
        "MEAN_ANOMALY": 180.6488,
        "EPHEMERIS_TYPE": 0,
        "CLASSIFICATION_TYPE": "U",
        "NORAD_CAT_ID": 57166,
        "ELEMENT_SET_NO": 999,
        "REV_AT_EPOCH": 15323,
        "BSTAR": 1.532e-5,
        "MEAN_MOTION_DOT": -8.0e-8,
        "MEAN_MOTION_DDOT": 0
    },
    {
        "OBJECT_NAME": "TIANMU-1 07",
        "OBJECT_ID": "2023-101A",
        "EPOCH": "2026-06-08T04:53:52.106784",
        "MEAN_MOTION": 15.29705553,
        "ECCENTRICITY": 0.0003569,
        "INCLINATION": 97.2596,
        "RA_OF_ASC_NODE": 210.0794,
        "ARG_OF_PERICENTER": 140.2937,
        "MEAN_ANOMALY": 219.8565,
        "EPHEMERIS_TYPE": 0,
        "CLASSIFICATION_TYPE": "U",
        "NORAD_CAT_ID": 57399,
        "ELEMENT_SET_NO": 999,
        "REV_AT_EPOCH": 16027,
        "BSTAR": 0.00025093,
        "MEAN_MOTION_DOT": 7.149e-5,
        "MEAN_MOTION_DDOT": 0
    },
    {
        "OBJECT_NAME": "TIANMU-1 08",
        "OBJECT_ID": "2023-101B",
        "EPOCH": "2026-06-08T04:05:52.157184",
        "MEAN_MOTION": 15.29709866,
        "ECCENTRICITY": 0.0005122,
        "INCLINATION": 97.2585,
        "RA_OF_ASC_NODE": 209.8187,
        "ARG_OF_PERICENTER": 137.1691,
        "MEAN_ANOMALY": 222.995,
        "EPHEMERIS_TYPE": 0,
        "CLASSIFICATION_TYPE": "U",
        "NORAD_CAT_ID": 57400,
        "ELEMENT_SET_NO": 999,
        "REV_AT_EPOCH": 16026,
        "BSTAR": 0.00024666,
        "MEAN_MOTION_DOT": 7.028e-5,
        "MEAN_MOTION_DDOT": 0
    },
    {
        "OBJECT_NAME": "TIANMU-1 09",
        "OBJECT_ID": "2023-101C",
        "EPOCH": "2026-06-08T03:42:14.123232",
        "MEAN_MOTION": 15.29737548,
        "ECCENTRICITY": 0.0003941,
        "INCLINATION": 97.2544,
        "RA_OF_ASC_NODE": 209.223,
        "ARG_OF_PERICENTER": 147.5695,
        "MEAN_ANOMALY": 212.5789,
        "EPHEMERIS_TYPE": 0,
        "CLASSIFICATION_TYPE": "U",
        "NORAD_CAT_ID": 57401,
        "ELEMENT_SET_NO": 999,
        "REV_AT_EPOCH": 16026,
        "BSTAR": 0.00025259,
        "MEAN_MOTION_DOT": 7.204e-5,
        "MEAN_MOTION_DDOT": 0
    },
    {
        "OBJECT_NAME": "TIANMU-1 10",
        "OBJECT_ID": "2023-101D",
        "EPOCH": "2026-06-08T04:29:35.218752",
        "MEAN_MOTION": 15.29706466,
        "ECCENTRICITY": 0.0005532,
        "INCLINATION": 97.2623,
        "RA_OF_ASC_NODE": 210.2965,
        "ARG_OF_PERICENTER": 150.1852,
        "MEAN_ANOMALY": 209.9705,
        "EPHEMERIS_TYPE": 0,
        "CLASSIFICATION_TYPE": "U",
        "NORAD_CAT_ID": 57402,
        "ELEMENT_SET_NO": 999,
        "REV_AT_EPOCH": 16026,
        "BSTAR": 0.00020636,
        "MEAN_MOTION_DOT": 5.867e-5,
        "MEAN_MOTION_DDOT": 0
    },
    {
        "OBJECT_NAME": "FENGYUN 3F",
        "OBJECT_ID": "2023-111A",
        "EPOCH": "2026-06-08T03:59:06.962784",
        "MEAN_MOTION": 14.19937661,
        "ECCENTRICITY": 0.0001575,
        "INCLINATION": 98.6836,
        "RA_OF_ASC_NODE": 229.3426,
        "ARG_OF_PERICENTER": 99.3678,
        "MEAN_ANOMALY": 260.7677,
        "EPHEMERIS_TYPE": 0,
        "CLASSIFICATION_TYPE": "U",
        "NORAD_CAT_ID": 57490,
        "ELEMENT_SET_NO": 999,
        "REV_AT_EPOCH": 14758,
        "BSTAR": 4.7986e-5,
        "MEAN_MOTION_DOT": 5.9e-7,
        "MEAN_MOTION_DDOT": 0
    },
    {
        "OBJECT_NAME": "ARKTIKA-M 2",
        "OBJECT_ID": "2023-198A",
        "EPOCH": "2026-06-03T07:17:21.587712",
        "MEAN_MOTION": 2.00591941,
        "ECCENTRICITY": 0.68985494,
        "INCLINATION": 63.2209,
        "RA_OF_ASC_NODE": 155.9142,
        "ARG_OF_PERICENTER": 267.4684,
        "MEAN_ANOMALY": 18.7857,
        "EPHEMERIS_TYPE": 0,
        "CLASSIFICATION_TYPE": "U",
        "NORAD_CAT_ID": 58584,
        "ELEMENT_SET_NO": 999,
        "REV_AT_EPOCH": 1804,
        "BSTAR": 0,
        "MEAN_MOTION_DOT": 1.5e-6,
        "MEAN_MOTION_DDOT": 0
    },
    {
        "OBJECT_NAME": "TIANMU-1 11",
        "OBJECT_ID": "2023-205A",
        "EPOCH": "2026-06-08T03:23:13.553376",
        "MEAN_MOTION": 15.26903317,
        "ECCENTRICITY": 0.0009981,
        "INCLINATION": 97.3453,
        "RA_OF_ASC_NODE": 180.8405,
        "ARG_OF_PERICENTER": 46.3387,
        "MEAN_ANOMALY": 313.8677,
        "EPHEMERIS_TYPE": 0,
        "CLASSIFICATION_TYPE": "U",
        "NORAD_CAT_ID": 58645,
        "ELEMENT_SET_NO": 999,
        "REV_AT_EPOCH": 13614,
        "BSTAR": 0.00024974,
        "MEAN_MOTION_DOT": 6.535e-5,
        "MEAN_MOTION_DDOT": 0
    },
    {
        "OBJECT_NAME": "TIANMU-1 12",
        "OBJECT_ID": "2023-205B",
        "EPOCH": "2026-06-08T02:40:13.973376",
        "MEAN_MOTION": 15.26865212,
        "ECCENTRICITY": 0.000782,
        "INCLINATION": 97.3441,
        "RA_OF_ASC_NODE": 180.5687,
        "ARG_OF_PERICENTER": 33.9552,
        "MEAN_ANOMALY": 326.2186,
        "EPHEMERIS_TYPE": 0,
        "CLASSIFICATION_TYPE": "U",
        "NORAD_CAT_ID": 58646,
        "ELEMENT_SET_NO": 999,
        "REV_AT_EPOCH": 13612,
        "BSTAR": 0.00024981,
        "MEAN_MOTION_DOT": 6.526e-5,
        "MEAN_MOTION_DDOT": 0
    },
    {
        "OBJECT_NAME": "TIANMU-1 13",
        "OBJECT_ID": "2023-205C",
        "EPOCH": "2026-06-08T03:25:19.681824",
        "MEAN_MOTION": 15.2671979,
        "ECCENTRICITY": 0.0007013,
        "INCLINATION": 97.3469,
        "RA_OF_ASC_NODE": 180.8708,
        "ARG_OF_PERICENTER": 15.0172,
        "MEAN_ANOMALY": 345.1274,
        "EPHEMERIS_TYPE": 0,
        "CLASSIFICATION_TYPE": "U",
        "NORAD_CAT_ID": 58647,
        "ELEMENT_SET_NO": 999,
        "REV_AT_EPOCH": 13612,
        "BSTAR": 0.00025666,
        "MEAN_MOTION_DOT": 6.676e-5,
        "MEAN_MOTION_DDOT": 0
    },
    {
        "OBJECT_NAME": "TIANMU-1 14",
        "OBJECT_ID": "2023-205D",
        "EPOCH": "2026-06-08T03:04:24.326976",
        "MEAN_MOTION": 15.26764653,
        "ECCENTRICITY": 0.000799,
        "INCLINATION": 97.3405,
        "RA_OF_ASC_NODE": 180.0454,
        "ARG_OF_PERICENTER": 18.3634,
        "MEAN_ANOMALY": 341.7891,
        "EPHEMERIS_TYPE": 0,
        "CLASSIFICATION_TYPE": "U",
        "NORAD_CAT_ID": 58648,
        "ELEMENT_SET_NO": 999,
        "REV_AT_EPOCH": 13612,
        "BSTAR": 0.00025774,
        "MEAN_MOTION_DOT": 6.715e-5,
        "MEAN_MOTION_DDOT": 0
    }
]